NORAD_CAT_ID,OBJECT_NAME,OBJECT_TYPE,EPOCH,MEAN_MOTION,ECCENTRICITY,INCLINATION,RA_OF_ASC_NODE,ARG_OF_PERICENTER,MEAN_ANOMALY,BSTAR,MEAN_MOTION_DOT,MEAN_MOTION_DDOT,TLE_LINE0,TLE_LINE1,TLE_LINE2,SEMIMAJOR_AXIS,PERIOD,APOGEE,PERIGEE,DECAYED
53406.0,STARLINK-4533,PAYLOAD,2024-04-17 22:49:09,15.08834152,0.0001539,53.2185,334.9656,81.8594,278.2572,-7.1725e-05,-1.429e-05,0.0,0 STARLINK-4533,1 53406U 22097U   24108.95080257 -.00001429  00000-0 -71725-4 0  9993,2 53406  53.2185 334.9656 0001539  81.8594 278.2572 15.08834152 93881,6917.898,95.438,540.828,538.699,0.0
53406.0,STARLINK-4533,PAYLOAD,2024-04-18 21:04:32,15.08849221,0.0001569,53.2183,330.8026,80.9899,279.1271,5.4922e-05,5.86e-06,0.0,0 STARLINK-4533,1 53406U 22097U   24109.87815820  .00000586  00000-0  54922-4 0  9998,2 53406  53.2183 330.8026 0001569  80.9899 279.1271 15.08849221 94022,6917.852,95.437,540.803,538.632,0.0
53406.0,STARLINK-4533,PAYLOAD,2024-04-19 14:33:48,15.08841756,0.0002119,53.218,327.5355,71.5675,288.5548,0.00022817,3.345e-05,0.0,0 STARLINK-4533,1 53406U 22097U   24110.60680651  .00003345  00000-0  22817-3 0  9996,2 53406  53.2180 327.5355 0002119  71.5675 288.5548 15.08841756 94629,6917.875,95.437,541.206,538.274,0.0
53406.0,STARLINK-4533,PAYLOAD,2024-04-19 20:55:20,15.08844938,0.0001652,53.2192,326.3467,93.1244,266.9938,0.00057075,8.808e-05,0.0,0 STARLINK-4533,1 53406U 22097U   24110.87176481  .00008808  00000-0  57075-3 0  9999,2 53406  53.2192 326.3467 0001652  93.1244 266.9938 15.08844938 94174,6917.865,95.437,540.873,538.587,0.0
53406.0,STARLINK-4533,PAYLOAD,2024-04-20 00:06:05,15.08863143,0.0001642,53.2193,325.7438,88.1338,271.9842,0.00055382,8.543e-05,0.0,0 STARLINK-4533,1 53406U 22097U   24111.00423600  .00008543  00000-0  55382-3 0  9998,2 53406  53.2193 325.7438 0001642  88.1338 271.9842 15.08863143 94194,6917.81,95.436,540.811,538.539,0.0
53406.0,STARLINK-4533,PAYLOAD,2024-04-20 20:46:06,15.08846671,0.0001492,53.2187,321.8824,103.1701,256.9457,7.6474e-05,9.3e-06,0.0,0 STARLINK-4533,1 53406U 22097U   24111.86535841  .00000930  00000-0  76474-4 0  9991,2 53406  53.2187 321.8824 0001492 103.1701 256.9457 15.08846671 94325,6917.86,95.437,540.757,538.693,0.0
53406.0,STARLINK-4533,PAYLOAD,2024-04-21 14:15:21,15.08837047,0.0001791,53.2188,318.6103,113.8257,246.2923,-5.0593e-05,-1.093e-05,0.0,0 STARLINK-4533,1 53406U 22097U   24112.59400363 -.00001093  00000-0 -50593-4 0  9999,2 53406  53.2188 318.6103 0001791 113.8257 246.2923 15.08837047 94929,6917.889,95.438,540.993,538.515,0.0
53406.0,STARLINK-4533,PAYLOAD,2024-04-21 19:01:31,15.08839997,0.0001494,53.2198,317.722,94.4218,265.6944,2.1133e-05,4.8e-07,0.0,0 STARLINK-4533,1 53406U 22097U   24112.79272315  .00000048  00000-0  21133-4 0  9990,2 53406  53.2198 317.7220 0001494  94.4218 265.6944 15.08839997 94958,6917.88,95.438,540.779,538.712,0.0
53406.0,STARLINK-4533,PAYLOAD,2024-04-22 18:52:18,15.08840565,0.0001362,53.2192,313.2607,104.116,255.9984,7.2999e-05,8.74e-06,0.0,0 STARLINK-4533,1 53406U 22097U   24113.78632475  .00000874  00000-0  72999-4 0  9990,2 53406  53.2192 313.2607 0001362 104.1160 255.9984 15.08840565 94613,6917.879,95.438,540.686,538.801,0.0
53406.0,STARLINK-4533,PAYLOAD,2024-04-23 20:18:29,15.08839712,0.0001224,53.2176,308.502,85.5142,274.599,7.7385e-05,9.44e-06,0.0,0 STARLINK-4533,1 53406U 22097U   24114.84617057  .00000944  00000-0  77385-4 0  9999,2 53406  53.2176 308.5020 0001224  85.5142 274.5990 15.08839712 94773,6917.881,95.438,540.593,538.9,0.0
53406.0,STARLINK-4533,PAYLOAD,2024-04-23 21:53:52,15.08843074,0.0001361,53.2184,308.2051,104.2288,255.8855,0.00012323,1.674e-05,0.0,0 STARLINK-4533,1 53406U 22097U   24114.91240842  .00001674  00000-0  12323-3 0  9992,2 53406  53.2184 308.2051 0001361 104.2288 255.8855 15.08843074 95279,6917.871,95.437,540.678,538.794,0.0
53406.0,STARLINK-4533,PAYLOAD,2024-04-24 12:12:20,15.08837183,0.0001146,53.219,305.5338,83.5816,276.5307,0.00028898,4.314e-05,0.0,0 STARLINK-4533,1 53406U 22097U   24115.50857398  .00004314  00000-0  28898-3 0  9996,2 53406  53.2190 305.5338 0001146  83.5816 276.5307 15.08837183 95367,6917.889,95.438,540.547,538.961,0.0
53406.0,STARLINK-4533,PAYLOAD,2024-04-24 20:09:16,15.08844454,0.0001324,53.2186,304.0467,60.3936,299.7188,0.00032321,4.86e-05,0.0,0 STARLINK-4533,1 53406U 22097U   24115.83977028  .00004860  00000-0  32321-3 0  9997,2 53406  53.2186 304.0467 0001324  60.3936 299.7188 15.08844454 95412,6917.867,95.437,540.648,538.816,0.0
53406.0,STARLINK-4533,PAYLOAD,2024-04-25 12:03:07,15.08841449,0.0001473,53.2184,301.0728,84.1026,276.0134,2.8507e-05,1.66e-06,0.0,0 STARLINK-4533,1 53406U 22097U   24116.50217339  .00000166  00000-0  28507-4 0  9991,2 53406  53.2184 301.0728 0001473  84.1026 276.0134 15.08841449 95023,6917.876,95.437,540.76,538.722,0.0
53406.0,STARLINK-4533,PAYLOAD,2024-04-25 20:00:03,15.08842761,0.0001236,53.2182,299.5822,91.443,268.6703,4.157e-05,3.74e-06,0.0,0 STARLINK-4533,1 53406U 22097U   24116.83337249  .00000374  00000-0  41570-4 0  9996,2 53406  53.2182 299.5822 0001236  91.4430 268.6703 15.08842761 95560,6917.872,95.437,540.592,538.882,0.0
53406.0,STARLINK-4533,PAYLOAD,2024-04-26 05:32:22,15.08840971,0.0001259,53.2187,297.7986,85.6793,274.4343,9.8345e-05,1.278e-05,0.0,0 STARLINK-4533,1 53406U 22097U   24117.23081426  .00001278  00000-0  98345-4 0  9990,2 53406  53.2187 297.7986 0001259  85.6793 274.4343 15.08840971 95621,6917.877,95.437,540.613,538.871,0.0
53406.0,STARLINK-4533,PAYLOAD,2024-04-26 18:15:27,15.08847038,0.0001072,53.2176,295.4174,87.4168,272.6947,2.8648e-05,1.68e-06,0.0,0 STARLINK-4533,1 53406U 22097U   24117.76073058  .00000168  00000-0  28648-4 0  9996,2 53406  53.2176 295.4174 0001072  87.4168 272.6947 15.08847038 95218,6917.859,95.437,540.465,538.982,0.0
53406.0,STARLINK-4533,PAYLOAD,2024-04-26 21:26:12,15.08862409,0.0001264,53.2186,294.8239,80.2737,279.8398,0.00025989,3.853e-05,0.0,0 STARLINK-4533,1 53406U 22097U   24117.89320150  .00003853  00000-0  25989-3 0  9996,2 53406  53.2186 294.8239 0001264  80.2737 279.8398 15.08862409 95724,6917.812,95.436,540.551,538.802,0.0
53406.0,STARLINK-4533,PAYLOAD,2024-04-27 05:23:09,15.08840508,0.0001297,53.2188,293.3381,81.9526,278.1614,0.00014333,1.994e-05,0.0,0 STARLINK-4533,1 53406U 22097U   24118.22441346  .00001994  00000-0  14333-3 0  9990,2 53406  53.2188 293.3381 0001297  81.9526 278.1614 15.08840508 95288,6917.879,95.438,540.641,538.847,0.0
53406.0,STARLINK-4533,PAYLOAD,2024-04-27 21:17:00,15.0884445,0.0001402,53.2181,290.3628,90.4493,269.666,0.00010992,1.462e-05,0.0,0 STARLINK-4533,1 53406U 22097U   24118.88681166  .00001462  00000-0  10992-3 0  9995,2 53406  53.2181 290.3628 0001402  90.4493 269.6660 15.08844450 95879,6917.867,95.437,540.702,538.762,0.0
53406.0,STARLINK-4533,PAYLOAD,2024-04-28 11:35:29,15.08840329,0.0001802,53.2169,287.6841,92.1016,268.0182,-0.00031508,-5.299e-05,0.0,0 STARLINK-4533,1 53406U 22097U   24119.48297500 -.00005299  00000-0 -31508-3 0  9997,2 53406  53.2169 287.6841 0001802  92.1016 268.0182 15.08840329 95474,6917.879,95.438,540.991,538.498,0.0
53406.0,STARLINK-4533,PAYLOAD,2024-04-28 14:46:15,15.08832717,0.0001387,53.217,287.0907,109.4512,250.663,-1.1633e-05,-4.73e-06,0.0,0 STARLINK-4533,1 53406U 22097U   24119.61546148 -.00000473  00000-0 -11633-4 0  9994,2 53406  53.2170 287.0907 0001387 109.4512 250.6630 15.08832717 95987,6917.903,95.438,540.727,538.808,0.0
53406.0,STARLINK-4533,PAYLOAD,2024-04-28 17:57:02,15.08834004,0.0001098,53.2167,286.4965,91.0992,269.0126,1.24e-05,-9e-07,0.0,0 STARLINK-4533,1 53406U 22097U   24119.74794140 -.00000090  00000-0  12400-4 0  9992,2 53406  53.2167 286.4965 0001098  91.0992 269.0126 15.08834004 95511,6917.899,95.438,540.523,539.004,0.0
53406.0,STARLINK-4533,PAYLOAD,2024-04-29 03:29:20,15.0884076,0.0001041,53.218,284.7138,90.7519,269.3592,-3.8337e-05,-8.98e-06,0.0,0 STARLINK-4533,1 53406U 22097U   24120.14537564 -.00000898  00000-0 -38337-4 0  9997,2 53406  53.2180 284.7138 0001041  90.7519 269.3592 15.08840760 95570,6917.878,95.438,540.463,539.023,0.0
53406.0,STARLINK-4533,PAYLOAD,2024-04-29 11:26:16,15.08833511,0.0001219,53.2187,283.2269,100.6386,259.4743,0.00010144,1.327e-05,0.0,0 STARLINK-4533,1 53406U 22097U   24120.47658215  .00001327  00000-0  10144-3 0  9991,2 53406  53.2187 283.2269 0001219 100.6386 259.4743 15.08833511 95626,6917.9,95.438,540.609,538.922,0.0
53406.0,STARLINK-4533,PAYLOAD,2024-04-29 14:37:02,15.0883642,0.0001091,53.219,282.6343,92.2194,267.8923,0.00018703,2.69e-05,0.0,0 STARLINK-4533,1 53406U 22097U   24120.60905936  .00002690  00000-0  18703-3 0  9994,2 53406  53.2190 282.6343 0001091  92.2194 267.8923 15.08836420 96139,6917.891,95.438,540.511,539.002,0.0
53406.0,STARLINK-4533,PAYLOAD,2024-04-29 17:47:48,15.08846239,0.000115,53.218,282.0399,99.1879,260.9244,0.00015978,2.256e-05,0.0,0 STARLINK-4533,1 53406U 22097U   24120.74153590  .00002256  00000-0  15978-3 0  9999,2 53406  53.2180 282.0399 0001150  99.1879 260.9244 15.08846239 95661,6917.861,95.437,540.522,538.931,0.0
53406.0,STARLINK-4533,PAYLOAD,2024-04-30 03:20:07,15.08841095,0.0001223,53.218,280.2552,101.8713,258.2416,0.0001266,1.728e-05,0.0,0 STARLINK-4533,1 53406U 22097U   24121.13897865  .00001728  00000-0  12660-3 0  9991,2 53406  53.2180 280.2552 0001223 101.8713 258.2416 15.08841095 95724,6917.877,95.437,540.588,538.896,0.0
53406.0,STARLINK-4533,PAYLOAD,2024-04-30 14:27:49,15.08838734,0.0001184,53.2184,278.1741,106.0513,254.0609,0.00015026,2.104e-05,0.0,0 STARLINK-4533,1 53406U 22097U   24121.60266088  .00002104  00000-0  15026-3 0  9998,2 53406  53.2184 278.1741 0001184 106.0513 254.0609 15.08838734 96281,6917.884,95.438,540.568,538.93,0.0
53406.0,STARLINK-4533,PAYLOAD,2024-04-30 17:38:36,15.08841214,0.0001168,53.2195,277.5789,103.8482,256.264,0.00015112,2.118e-05,0.0,0 STARLINK-4533,1 53406U 22097U   24121.73513970  .00002118  00000-0  15112-3 0  9998,2 53406  53.2195 277.5789 0001168 103.8482 256.2640 15.08841214 96309,6917.877,95.437,540.55,538.934,0.0
